{
  "type": "FeatureCollection",
  "features": [
    {
      "type": "Feature",
      "properties": {
        "norad_id": 31566,
        "name": "FENGYUN 1C DEB",
        "group": "fengyun-1c-debris",
        "lat": 45.37227261596339,
        "lon": -132.38897932873843,
        "alt_km": 770.6866398012899,
        "timestamp": "2025-12-05T18:53:13.565025+00:00",
        "meta_object_name": "FENGYUN 1C DEB",
        "meta_object_id": "1999-025BZH",
        "meta_epoch": "2025-12-04T10:35:24.609120",
        "meta_mean_motion": 14.37241094,
        "meta_eccentricity": 0.0023131,
        "meta_inclination": 98.95,
        "meta_ra_of_asc_node": 37.0249,
        "meta_arg_of_pericenter": 22.0635,
        "meta_mean_anomaly": 352.6159,
        "meta_ephemeris_type": 0,
        "meta_classification_type": "U",
        "meta_norad_cat_id": 31566,
        "meta_element_set_no": 999,
        "meta_rev_at_epoch": 96272,
        "meta_bstar": 0.0050885,
        "meta_mean_motion_dot": 0.0001519,
        "meta_mean_motion_ddot": 0,
        "tle_line1": "1 31566U 99025BZH 25338.44125705  .00015190  00000+0  50885-2 0  9998",
        "tle_line2": "2 31566  98.9500  37.0249 0023131  22.0635 352.6159 14.37241094962729"
      },
      "geometry": {
        "type": "Point",
        "coordinates": [
          -132.38897932873843,
          45.37227261596339
        ]
      }
    },
    {
      "type": "Feature",
      "properties": {
        "norad_id": 31567,
        "name": "FENGYUN 1C DEB",
        "group": "fengyun-1c-debris",
        "lat": 77.33406012286997,
        "lon": 100.67938046021803,
        "alt_km": 993.4808807345407,
        "timestamp": "2025-12-05T18:53:13.565035+00:00",
        "meta_object_name": "FENGYUN 1C DEB",
        "meta_object_id": "1999-025BZJ",
        "meta_epoch": "2025-12-04T20:02:00.270240",
        "meta_mean_motion": 13.92774926,
        "meta_eccentricity": 0.01874049,
        "meta_inclination": 102.3178,
        "meta_ra_of_asc_node": 202.9485,
        "meta_arg_of_pericenter": 327.4998,
        "meta_mean_anomaly": 31.4723,
        "meta_ephemeris_type": 0,
        "meta_classification_type": "U",
        "meta_norad_cat_id": 31567,
        "meta_element_set_no": 999,
        "meta_rev_at_epoch": 67299,
        "meta_bstar": 0.006802903,
        "meta_mean_motion_dot": 0.00010117,
        "meta_mean_motion_ddot": 0,
        "tle_line1": "1 31567U 99025BZJ 25338.83472535  .00010117  00000+0  68029-2 0  9991",
        "tle_line2": "2 31567 102.3178 202.9485 0187404 327.4998  31.4723 13.92774926672995"
      },
      "geometry": {
        "type": "Point",
        "coordinates": [
          100.67938046021803,
          77.33406012286997
        ]
      }
    },
    {
      "type": "Feature",
      "properties": {
        "norad_id": 31568,
        "name": "FENGYUN 1C DEB",
        "group": "fengyun-1c-debris",
        "lat": 4.035227319637549,
        "lon": -141.19341838771132,
        "alt_km": 946.4342479040379,
        "timestamp": "2025-12-05T18:53:13.565044+00:00",
        "meta_object_name": "FENGYUN 1C DEB",
        "meta_object_id": "1999-025BZK",
        "meta_epoch": "2025-11-27T22:38:02.918112",
        "meta_mean_motion": 14.03182798,
        "meta_eccentricity": 0.0121792,
        "meta_inclination": 102.0468,
        "meta_ra_of_asc_node": 209.318,
        "meta_arg_of_pericenter": 158.3893,
        "meta_mean_anomaly": 202.2464,
        "meta_ephemeris_type": 0,
        "meta_classification_type": "U",
        "meta_norad_cat_id": 31568,
        "meta_element_set_no": 999,
        "meta_rev_at_epoch": 94372,
        "meta_bstar": 0.0028015,
        "meta_mean_motion_dot": 4.595e-05,
        "meta_mean_motion_ddot": 0,
        "tle_line1": "1 31568U 99025BZK 25331.94308933  .00004595  00000+0  28015-2 0  9991",
        "tle_line2": "2 31568 102.0468 209.3180 0121792 158.3893 202.2464 14.03182798943726"
      },
      "geometry": {
        "type": "Point",
        "coordinates": [
          -141.19341838771132,
          4.035227319637549
        ]
      }
    },
    {
      "type": "Feature",
      "properties": {
        "norad_id": 31569,
        "name": "FENGYUN 1C DEB",
        "group": "fengyun-1c-debris",
        "lat": 21.679162049964372,
        "lon": 129.36214164276407,
        "alt_km": 783.2157836941024,
        "timestamp": "2025-12-05T18:53:13.565065+00:00",
        "meta_object_name": "FENGYUN 1C DEB",
        "meta_object_id": "1999-025BZL",
        "meta_epoch": "2025-11-30T05:24:01.468800",
        "meta_mean_motion": 13.95405103,
        "meta_eccentricity": 0.01728622,
        "meta_inclination": 102.6164,
        "meta_ra_of_asc_node": 126.885,
        "meta_arg_of_pericenter": 36.2337,
        "meta_mean_anomaly": 138.7821,
        "meta_ephemeris_type": 0,
        "meta_classification_type": "U",
        "meta_norad_cat_id": 31569,
        "meta_element_set_no": 999,
        "meta_rev_at_epoch": 93504,
        "meta_bstar": 0.0023090613,
        "meta_mean_motion_dot": 3.477e-05,
        "meta_mean_motion_ddot": 0,
        "tle_line1": "1 31569U 99025BZL 25334.22501700  .00003477  00000+0  23091-2 0  9990",
        "tle_line2": "2 31569 102.6164 126.8850 0172862  36.2337 138.7821 13.95405103935048"
      },
      "geometry": {
        "type": "Point",
        "coordinates": [
          129.36214164276407,
          21.679162049964372
        ]
      }
    },
    {
      "type": "Feature",
      "properties": {
        "norad_id": 31570,
        "name": "FENGYUN 1C DEB",
        "group": "fengyun-1c-debris",
        "lat": -59.74283941652196,
        "lon": 173.2644729872302,
        "alt_km": 705.7913077224512,
        "timestamp": "2025-12-05T18:53:13.565077+00:00",
        "meta_object_name": "FENGYUN 1C DEB",
        "meta_object_id": "1999-025BZM",
        "meta_epoch": "2025-11-25T06:40:18.493248",
        "meta_mean_motion": 14.24909801,
        "meta_eccentricity": 0.01526257,
        "meta_inclination": 102.5663,
        "meta_ra_of_asc_node": 0.7562,
        "meta_arg_of_pericenter": 266.5584,
        "meta_mean_anomaly": 91.8112,
        "meta_ephemeris_type": 0,
        "meta_classification_type": "U",
        "meta_norad_cat_id": 31570,
        "meta_element_set_no": 999,
        "meta_rev_at_epoch": 63118,
        "meta_bstar": 0.0023713757,
        "meta_mean_motion_dot": 6.183e-05,
        "meta_mean_motion_ddot": 0,
        "tle_line1": "1 31570U 99025BZM 25329.27799182  .00006183  00000+0  23714-2 0  9993",
        "tle_line2": "2 31570 102.5663   0.7562 0152625 266.5584  91.8112 14.24909801631187"
      },
      "geometry": {
        "type": "Point",
        "coordinates": [
          173.2644729872302,
          -59.74283941652196
        ]
      }
    },
    {
      "type": "Feature",
      "properties": {
        "norad_id": 31608,
        "name": "FENGYUN 1C DEB",
        "group": "fengyun-1c-debris",
        "lat": -80.02808602916447,
        "lon": -139.41411522468653,
        "alt_km": 711.6514235401419,
        "timestamp": "2025-12-05T18:53:13.565087+00:00",
        "meta_object_name": "FENGYUN 1C DEB",
        "meta_object_id": "1999-025BZN",
        "meta_epoch": "2025-12-04T14:13:29.603136",
        "meta_mean_motion": 14.85679772,
        "meta_eccentricity": 0.0146671,
        "meta_inclination": 98.3801,
        "meta_ra_of_asc_node": 96.302,
        "meta_arg_of_pericenter": 63.9077,
        "meta_mean_anomaly": 297.7147,
        "meta_ephemeris_type": 0,
        "meta_classification_type": "U",
        "meta_norad_cat_id": 31608,
        "meta_element_set_no": 999,
        "meta_rev_at_epoch": 98512,
        "meta_bstar": 0.0015593,
        "meta_mean_motion_dot": 0.00016394,
        "meta_mean_motion_ddot": 0,
        "tle_line1": "1 31608U 99025BZN 25338.59270374  .00016394  00000+0  15593-2 0  9998",
        "tle_line2": "2 31608  98.3801  96.3020 0146671  63.9077 297.7147 14.85679772985124"
      },
      "geometry": {
        "type": "Point",
        "coordinates": [
          -139.41411522468653,
          -80.02808602916447
        ]
      }
    },
    {
      "type": "Feature",
      "properties": {
        "norad_id": 31609,
        "name": "FENGYUN 1C DEB",
        "group": "fengyun-1c-debris",
        "lat": 48.76291943102359,
        "lon": -2.5978675402678397,
        "alt_km": 810.925543399374,
        "timestamp": "2025-12-05T18:53:13.565097+00:00",
        "meta_object_name": "FENGYUN 1C DEB",
        "meta_object_id": "1999-025BZP",
        "meta_epoch": "2025-12-03T00:38:30.011136",
        "meta_mean_motion": 14.15605552,
        "meta_eccentricity": 0.00949088,
        "meta_inclination": 99.2182,
        "meta_ra_of_asc_node": 5.225,
        "meta_arg_of_pericenter": 348.1387,
        "meta_mean_anomaly": 41.5257,
        "meta_ephemeris_type": 0,
        "meta_classification_type": "U",
        "meta_norad_cat_id": 31609,
        "meta_element_set_no": 999,
        "meta_rev_at_epoch": 65947,
        "meta_bstar": 0.0032300909,
        "meta_mean_motion_dot": 6.563e-05,
        "meta_mean_motion_ddot": 0,
        "tle_line1": "1 31609U 99025BZP 25337.02673624  .00006563  00000+0  32301-2 0  9994",
        "tle_line2": "2 31609  99.2182   5.2250 0094908 348.1387  41.5257 14.15605552659479"
      },
      "geometry": {
        "type": "Point",
        "coordinates": [
          -2.5978675402678397,
          48.76291943102359
        ]
      }
    }
  ]
}